     3.02           N: GNSS NAV DATA    C: BEIDOU           RINEX VERSION / TYPE
LgsRinex v1.7.8.0   SMO                 20171211 131243 UTC PGM / RUN BY / DATE
BDSA   1.0245D-08 -7.4506D-09 -3.5763D-07  1.0729D-06       IONOSPHERIC CORR
BDSB   1.1264D+05 -3.7683D+05  3.8011D+06 -4.1288D+06       IONOSPHERIC CORR
BDUT -6.5192580223D-09-9.769962617D-15 133145  623          TIME SYSTEM CORR
     4     4   573     6                                    LEAP SECONDS
                                                            END OF HEADER
C01 2017 12 11 11 00 00 9.744113776833D-05 4.743849757460D-11 0.000000000000D+00
     1.000000000000D+00 3.381093750000D+02 2.821546121745D-11 2.975024120828D+00
     1.125503331423D-05 3.504351479933D-04 4.833564162254D-06 6.493411647797D+03
     1.260000000000D+05-1.210719347000D-08-4.409256288594D-01-2.514570951462D-08
     1.047700747227D-01-1.497812500000D+02 2.813911852643D+00 9.746834450652D-10
     2.360812656477D-10                    6.230000000000D+02                   
     2.000000000000D+00 0.000000000000D+00 1.420000028673D-08-1.039999997232D-08
     1.260004000000D+05 0.000000000000D+00                                      
C02 2017 12 11 11 00 00-7.428124081343D-05-2.700861756466D-11 0.000000000000D+00
     1.000000000000D+00 3.289687500000D+02 1.368985591554D-09 1.118484764100D+00
     1.100823283195D-05 3.920687595382D-04-2.399086952209D-06 6.493440269470D+03
     1.260000000000D+05 5.168840289116D-08-1.789268755597D-01 3.864988684654D-08
     1.121266479421D-01 6.934375000000D+01-2.849021751957D+00-4.389468510890D-10
     3.364425960051D-10                    6.230000000000D+02                   
     2.000000000000D+00 0.000000000000D+00 4.000000053406D-10-1.400000027019D-08
     1.260004000000D+05 0.000000000000D+00                                      
C03 2017 12 11 11 00 00 7.063173688948D-05 6.844569355735D-11 0.000000000000D+00
     3.000000000000D+00 2.922343750000D+02 5.982391804160D-10 2.931451891424D-01
     9.854324162006D-06 8.356048492715D-04 2.546701580286D-06 6.493594579697D+03
     1.260000000000D+05-1.350417733192D-08-3.654744629755D-01 3.632158041000D-08
     1.101550922646D-01-7.854687500000D+01-1.379661562248D+00 2.825117639826D-10
     2.710827118335D-10                    6.230000000000D+02                   
     2.000000000000D+00 1.000000000000D+00 3.500000067547D-09-9.899999930951D-09
     1.260004000000D+05 0.000000000000D+00                                      
C04 2017 12 11 11 00 00-2.427083672956D-04 1.930544613060D-11 0.000000000000D+00
     1.000000000000D+00 4.056406250000D+02 6.393123253012D-10 2.661445307423D+00
     1.337798312306D-05 7.507890695706D-04 1.959037035704D-06 6.493439807892D+03
     1.260000000000D+05-3.259629011154D-08-2.624540104801D-01-1.257285475731D-08
     1.044936826842D-01-6.695312500000D+01-2.985806138673D+00 4.750198012715D-10
     3.082271382571D-10                    6.230000000000D+02                   
     2.000000000000D+00 0.000000000000D+00 5.099999977887D-09-8.499999815115D-09
     1.260004000000D+05 0.000000000000D+00                                      
C05 2017 12 11 11 00 00-9.392108768225D-05-7.648992550457D-12 0.000000000000D+00
     1.000000000000D+00 3.282343750000D+02 1.408987260199D-09 1.739971546970D-01
     1.098774373531D-05 6.065791239962D-04-3.119930624962D-06 6.493318857193D+03
     1.260000000000D+05 1.816079020500D-08-2.699899506223D-01-4.470348358154D-08
     1.213921390756D-01 9.579687500000D+01-2.256524449255D+00-3.310852147997D-10
     2.700112355924D-10                    6.230000000000D+02                   
     2.000000000000D+00 0.000000000000D+00-9.999999717181D-10-9.399999889581D-09
     1.260004000000D+05 0.000000000000D+00                                      
C06 2017 12 11 11 00 00-6.527518853545D-04-9.602096895378D-12 0.000000000000D+00
     1.000000000000D+00 9.062500000000D-01 9.546826662543D-10-9.396389883298D-01
    -2.472661435604D-07 5.857219104655D-03 1.979107037187D-05 6.493403686523D+03
     1.260000000000D+05 4.097819328308D-08 1.969961424481D+00-5.075708031654D-08
     9.446835497246D-01-3.644375000000D+02-2.328676935290D+00-1.832933471668D-09
    -1.878649735776D-10                    6.230000000000D+02                   
     2.000000000000D+00 0.000000000000D+00 7.999999773745D-09-1.899999935162D-09
     1.260000000000D+05 0.000000000000D+00                                      
C07 2017 12 11 11 00 00-2.346842084080D-04-1.317701503467D-11 0.000000000000D+00
     1.000000000000D+00-2.979687500000D+01 1.494705137439D-09-2.608006324629D+00
    -1.064501702785D-06 5.967324366793D-03 1.264270395041D-06 6.493172611237D+03
     1.260000000000D+05-7.962808012962D-08-2.264543657070D+00-1.699663698673D-07
     9.231962045875D-01 1.920156250000D+02-2.705787754418D+00-2.559392253687D-09
    -3.618007837769D-10                    6.230000000000D+02                   
     2.000000000000D+00 0.000000000000D+00 1.440000030328D-08 7.000000024071D-10
     1.260000000000D+05 0.000000000000D+00                                      
C08 2017 12 11 11 00 00 4.388822708279D-05 2.402433807447D-11 2.032879073410D-19
     5.000000000000D+00-9.578125000000D+00 1.010399208745D-09 1.577106357679D+00
    -6.286427378654D-08 3.281630575657D-03 8.064787834883D-06 6.493602947235D+03
     1.260000000000D+05-1.005828380585D-07-1.361957772379D-01 2.714805305004D-07
     1.013853501285D+00 5.781250000000D+00-2.708910800711D+00-2.147946709385D-09
     6.193114909792D-10                    6.230000000000D+02                   
     2.000000000000D+00 0.000000000000D+00 1.069999999714D-08-9.000000189552D-10
     1.260300000000D+05 4.000000000000D+00                                      
C09 2017 12 11 11 00 00-6.166530074552D-04 3.874767173784D-11 0.000000000000D+00
     1.000000000000D+00 2.981250000000D+01 9.396819988794D-10-1.159589935770D+00
     7.306225597858D-07 4.673320916481D-03 2.076383680105D-05 6.493325376511D+03
     1.260000000000D+05-2.002343535423D-08 2.011615019269D+00-3.352761268616D-08
     9.500729882049D-01-3.879375000000D+02-2.555321840371D+00-1.806860994158D-09
    -1.846505448544D-10                    6.230000000000D+02                   
     2.000000000000D+00 0.000000000000D+00 6.300000077175D-09 3.500000067547D-09
     1.260000000000D+05 0.000000000000D+00                                      
C10 2017 12 11 11 00 00 1.351911341771D-04-2.647393415600D-11 0.000000000000D+00
     1.000000000000D+00 2.140625000000D+00 1.420059181356D-09-3.082068518216D+00
     1.862645149231D-08 5.076213623397D-03 1.246575266123D-06 6.493012340546D+03
     1.260000000000D+05-1.862645149231D-07-2.273456754645D+00-1.098960638046D-07
     9.245532527483D-01 1.895625000000D+02-2.671259376744D+00-2.531891141189D-09
    -3.996594999389D-10                    6.230000000000D+02                   
     2.000000000000D+00 0.000000000000D+00 5.800000035805D-09 2.700000001354D-09
     1.260000000000D+05 0.000000000000D+00                                      
C11 2017 12 10 20 00 00-3.091599792242D-04-1.434674601342D-11 0.000000000000D+00
     2.000000000000D+00 3.281250000000D+01 3.468358711345D-09-1.225111300883D+00
     1.680571585894D-06 2.421199926175D-03 6.383750587702D-06 5.282602802277D+03
     7.200000000000D+04 8.568167686462D-08-5.350624396354D-01 4.377216100693D-08
     9.837524915714D-01 2.433750000000D+02-2.361456052078D+00-6.859214085608D-09
     3.335853260289D-10                    6.230000000000D+02                   
     2.000000000000D+00 0.000000000000D+00 3.600000075821D-09 1.299999996540D-09
     7.200000000000D+04 1.000000000000D+00                                      
C12 2017 12 10 16 00 00 3.641607472673D-04 1.934452598107D-12 0.000000000000D+00
     1.000000000000D+00 2.317187500000D+01 3.454786678958D-09-2.244444558285D+00
     9.816139936447D-07 2.663427731022D-03 6.491784006357D-06 5.282612464905D+03
     5.760000000000D+04 5.867332220078D-08-5.450441988672D-01-4.144385457039D-08
     9.826166819746D-01 2.381093750000D+02-2.459071140766D+00-6.797426177485D-09
     4.068026471238D-10                    6.230000000000D+02                   
     2.000000000000D+00 0.000000000000D+00 2.700000001354D-09-2.999999970665D-10
     5.760000000000D+04 0.000000000000D+00                                      
C13 2017 12 11 11 00 00-7.046165410429D-05-2.814282140662D-11 2.710505431214D-20
     4.000000000000D+00 3.400000000000D+01 1.239694458199D-09 1.549026483399D+00
     1.229345798492D-06 3.204240580089D-03 7.261056452990D-06 6.493464956284D+03
     1.260000000000D+05 1.462176442146D-07-1.472489791339D-01 2.258457243443D-07
     9.741383738934D-01 1.604687500000D+01-3.096699701744D+00-2.303667478998D-09
     5.446655348962D-10                    6.230000000000D+02                   
     2.000000000000D+00 0.000000000000D+00-9.699999914403D-09 2.499999984806D-09
     1.284600000000D+05 3.000000000000D+00                                      
C14 2017 12 11 11 00 00 3.448926145211D-04 1.395683568717D-11 0.000000000000D+00
     1.400000000000D+01-3.585937500000D+01 3.933378067700D-09-2.280604826928D+00
    -1.846812665462D-06 1.739263301715D-03 9.897630661726D-06 5.282609291077D+03
     1.260000000000D+05 3.445893526077D-08 1.542915280637D+00 2.421438694000D-08
     9.569968536631D-01 1.568281250000D+02-2.298769861700D+00-6.753138492854D-09
    -2.160804313256D-10                    6.230000000000D+02                   
     2.000000000000D+00 0.000000000000D+00 6.800000118545D-09 1.600000021362D-09
     1.260000000000D+05 0.000000000000D+00                                      
